CTC2_L_00440001-01
1 11381U 23811JF  26037.47795139  .00000000  00000+0  00000-0 0  9991
2 11381  80.0000   0.0000 0000000   0.0000   0.0000 12.41559219    14
CTC2_L_00440001-02
1 11382U 26229BF  26037.47795139  .00000000  00000+0  00000-0 0  9998
2 11382  80.0000   0.0000 0000000   0.0000  90.0000 12.41559219    14
CTC2_L_00440001-03
1 11383U 23116KK  26037.47795139  .00000000  00000+0  00000-0 0  9991
2 11383  80.0000   0.0000 0000000   0.0000 180.0000 12.41559219    15
CTC2_L_00440001-04
1 11384U 26358TV  26037.47795139  .00000000  00000+0  00000-0 0  9993
2 11384  80.0000   0.0000 0000000   0.0000 270.0000 12.41559219    16
CTC2_L_00440002-01
1 11385U 25766YA  26037.47795139  .00000000  00000+0  00000-0 0  9996
2 11385  80.0000  12.0000 0000000   0.0000  12.0000 12.41559219    14
CTC2_L_00440002-02
1 11386U 25423NL  26037.47795139  .00000000  00000+0  00000-0 0  9997
2 11386  80.0000  12.0000 0000000   0.0000 102.0000 12.41559219    15
CTC2_L_00440002-03
1 11387U 25632GU  26037.47795139  .00000000  00000+0  00000-0 0  9990
2 11387  80.0000  12.0000 0000000   0.0000 192.0000 12.41559219    15
CTC2_L_00440002-04
1 11388U 24388ZX  26037.47795139  .00000000  00000+0  00000-0 0  9998
2 11388  80.0000  12.0000 0000000   0.0000 282.0000 12.41559219    16
CTC2_L_00440003-01
1 11389U 25642BT  26037.47795139  .00000000  00000+0  00000-0 0  9993
2 11389  80.0000  24.0000 0000000   0.0000  24.0000 12.41559219    14
CTC2_L_00440003-02
1 11390U 23357QH  26037.47795139  .00000000  00000+0  00000-0 0  9996
2 11390  80.0000  24.0000 0000000   0.0000 114.0000 12.41559219    16
CTC2_L_00440003-03
1 11391U 25368CI  26037.47795139  .00000000  00000+0  00000-0 0  9991
2 11391  80.0000  24.0000 0000000   0.0000 204.0000 12.41559219    17
CTC2_L_00440003-04
1 11392U 22857BV  26037.47795139  .00000000  00000+0  00000-0 0  9992
2 11392  80.0000  24.0000 0000000   0.0000 294.0000 12.41559219    17
CTC2_L_00440004-01
1 11393U 23053CC  26037.47795139  .00000000  00000+0  00000-0 0  9992
2 11393  80.0000  36.0000 0000000   0.0000  36.0000 12.41559219    15
CTC2_L_00440004-02
1 11394U 23001MH  26037.47795139  .00000000  00000+0  00000-0 0  9996
2 11394  80.0000  36.0000 0000000   0.0000 126.0000 12.41559219    16
CTC2_L_00440004-03
1 11395U 26170HN  26037.47795139  .00000000  00000+0  00000-0 0  9997
2 11395  80.0000  36.0000 0000000   0.0000 216.0000 12.41559219    17
CTC2_L_00440004-04
1 11396U 24820KN  26037.47795139  .00000000  00000+0  00000-0 0  9998
2 11396  80.0000  36.0000 0000000   0.0000 306.0000 12.41559219    18
CTC2_L_00440005-01
1 11397U 26447LR  26037.47795139  .00000000  00000+0  00000-0 0  9996
2 11397  80.0000  48.0000 0000000   0.0000  48.0000 12.41559219    15
CTC2_L_00440005-02
1 11398U 23439QK  26037.47795139  .00000000  00000+0  00000-0 0  9995
2 11398  80.0000  48.0000 0000000   0.0000 138.0000 12.41559219    16
CTC2_L_00440005-03
1 11399U 25722IQ  26037.47795139  .00000000  00000+0  00000-0 0  9993
2 11399  80.0000  48.0000 0000000   0.0000 228.0000 12.41559219    17
CTC2_L_00440005-04
1 11400U 23852OR  26037.47795139  .00000000  00000+0  00000-0 0  9998
2 11400  80.0000  48.0000 0000000   0.0000 318.0000 12.41559219    10
CTC2_L_00440006-01
1 11401U 26827JH  26037.47795139  .00000000  00000+0  00000-0 0  9994
2 11401  80.0000  60.0000 0000000   0.0000  60.0000 12.41559219    19
CTC2_L_00440006-02
1 11402U 22674HO  26037.47795139  .00000000  00000+0  00000-0 0  9991
2 11402  80.0000  60.0000 0000000   0.0000 150.0000 12.41559219    10
CTC2_L_00440006-03
1 11403U 23321FL  26037.47795139  .00000000  00000+0  00000-0 0  9992
2 11403  80.0000  60.0000 0000000   0.0000 240.0000 12.41559219    11
CTC2_L_00440006-04
1 11404U 22062MH  26037.47795139  .00000000  00000+0  00000-0 0  9994
2 11404  80.0000  60.0000 0000000   0.0000 330.0000 12.41559219    12
CTC2_L_00440007-01
1 11405U 24968V   26037.47795139  .00000000  00000+0  00000-0 0  9992
2 11405  80.0000  72.0000 0000000   0.0000  72.0000 12.41559219    19
CTC2_L_00440007-02
1 11406U 25142LB  26037.47795139  .00000000  00000+0  00000-0 0  9998
2 11406  80.0000  72.0000 0000000   0.0000 162.0000 12.41559219    10
CTC2_L_00440007-03
1 11407U 23915KR  26037.47795139  .00000000  00000+0  00000-0 0  9995
2 11407  80.0000  72.0000 0000000   0.0000 252.0000 12.41559219    11
CTC2_L_00440007-04
1 11408U 25435PO  26037.47795139  .00000000  00000+0  00000-0 0  9995
2 11408  80.0000  72.0000 0000000   0.0000 342.0000 12.41559219    12
CTC2_L_00440008-01
1 11409U 25357OM  26037.47795139  .00000000  00000+0  00000-0 0  9999
2 11409  80.0000  84.0000 0000000   0.0000  84.0000 12.41559219    19
CTC2_L_00440008-02
1 11410U 24512VN  26037.47795139  .00000000  00000+0  00000-0 0  9993
2 11410  80.0000  84.0000 0000000   0.0000 174.0000 12.41559219    11
CTC2_L_00440008-03
1 11411U 22448LC  26037.47795139  .00000000  00000+0  00000-0 0  9990
2 11411  80.0000  84.0000 0000000   0.0000 264.0000 12.41559219    12
CTC2_L_00440008-04
1 11412U 23327LJ  26037.47795139  .00000000  00000+0  00000-0 0  9998
2 11412  80.0000  84.0000 0000000   0.0000 354.0000 12.41559219    13
CTC2_L_00440009-01
1 11413U 24469TI  26037.47795139  .00000000  00000+0  00000-0 0  9997
2 11413  80.0000  96.0000 0000000   0.0000  96.0000 12.41559219    10
CTC2_L_00440009-02
1 11414U 24798MV  26037.47795139  .00000000  00000+0  00000-0 0  9993
2 11414  80.0000  96.0000 0000000   0.0000 186.0000 12.41559219    11
CTC2_L_00440009-03
1 11415U 24385BL  26037.47795139  .00000000  00000+0  00000-0 0  9996
2 11415  80.0000  96.0000 0000000   0.0000 276.0000 12.41559219    12
CTC2_L_00440009-04
1 11416U 24048SD  26037.47795139  .00000000  00000+0  00000-0 0  9993
2 11416  80.0000  96.0000 0000000   0.0000   6.0000 12.41559219    14
CTC2_L_00440010-01
1 11417U 26393FB  26037.47795139  .00000000  00000+0  00000-0 0  9999
2 11417  80.0000 108.0000 0000000   0.0000 108.0000 12.41559219    12
CTC2_L_00440010-02
1 11418U 22200JD  26037.47795139  .00000000  00000+0  00000-0 0  9993
2 11418  80.0000 108.0000 0000000   0.0000 198.0000 12.41559219    12
CTC2_L_00440010-03
1 11419U 23860BL  26037.47795139  .00000000  00000+0  00000-0 0  9997
2 11419  80.0000 108.0000 0000000   0.0000 288.0000 12.41559219    13
CTC2_L_00440010-04
1 11420U 25350FG  26037.47795139  .00000000  00000+0  00000-0 0  9995
2 11420  80.0000 108.0000 0000000   0.0000  18.0000 12.41559219    16
CTC2_L_00440011-01
1 11421U 26947SH  26037.47795139  .00000000  00000+0  00000-0 0  9999
2 11421  80.0000 120.0000 0000000   0.0000 120.0000 12.41559219    15
CTC2_L_00440011-02
1 11422U 22641GU  26037.47795139  .00000000  00000+0  00000-0 0  9997
2 11422  80.0000 120.0000 0000000   0.0000 210.0000 12.41559219    16
CTC2_L_00440011-03
1 11423U 24993MC  26037.47795139  .00000000  00000+0  00000-0 0  9990
2 11423  80.0000 120.0000 0000000   0.0000 300.0000 12.41559219    17
CTC2_L_00440011-04
1 11424U 24898UZ  26037.47795139  .00000000  00000+0  00000-0 0  9995
2 11424  80.0000 120.0000 0000000   0.0000  30.0000 12.41559219    18
CTC2_L_00440012-01
1 11425U 26713IP  26037.47795139  .00000000  00000+0  00000-0 0  9994
2 11425  80.0000 132.0000 0000000   0.0000 132.0000 12.41559219    15
CTC2_L_00440012-02
1 11426U 22915KT  26037.47795139  .00000000  00000+0  00000-0 0  9995
2 11426  80.0000 132.0000 0000000   0.0000 222.0000 12.41559219    16
CTC2_L_00440012-03
1 11427U 26418YN  26037.47795139  .00000000  00000+0  00000-0 0  9998
2 11427  80.0000 132.0000 0000000   0.0000 312.0000 12.41559219    17
CTC2_L_00440012-04
1 11428U 22838LO  26037.47795139  .00000000  00000+0  00000-0 0  9991
2 11428  80.0000 132.0000 0000000   0.0000  42.0000 12.41559219    18
CTC2_L_00440013-01
1 11429U 25487R   26037.47795139  .00000000  00000+0  00000-0 0  9995
2 11429  80.0000 144.0000 0000000   0.0000 144.0000 12.41559219    15
CTC2_L_00440013-02
1 11430U 26942WW  26037.47795139  .00000000  00000+0  00000-0 0  9994
2 11430  80.0000 144.0000 0000000   0.0000 234.0000 12.41559219    17
CTC2_L_00440013-03
1 11431U 22215IK  26037.47795139  .00000000  00000+0  00000-0 0  9994
2 11431  80.0000 144.0000 0000000   0.0000 324.0000 12.41559219    18
CTC2_L_00440013-04
1 11432U 25388NE  26037.47795139  .00000000  00000+0  00000-0 0  9999
2 11432  80.0000 144.0000 0000000   0.0000  54.0000 12.41559219    19
CTC2_L_00440014-01
1 11433U 23110IX  26037.47795139  .00000000  00000+0  00000-0 0  9991
2 11433  80.0000 156.0000 0000000   0.0000 156.0000 12.41559219    16
CTC2_L_00440014-02
1 11434U 23721VO  26037.47795139  .00000000  00000+0  00000-0 0  9990
2 11434  80.0000 156.0000 0000000   0.0000 246.0000 12.41559219    17
CTC2_L_00440014-03
1 11435U 24042HL  26037.47795139  .00000000  00000+0  00000-0 0  9998
2 11435  80.0000 156.0000 0000000   0.0000 336.0000 12.41559219    18
CTC2_L_00440014-04
1 11436U 26469JI  26037.47795139  .00000000  00000+0  00000-0 0  9994
2 11436  80.0000 156.0000 0000000   0.0000  66.0000 12.41559219    19
CTC2_L_00440015-01
1 11437U 24538LY  26037.47795139  .00000000  00000+0  00000-0 0  9990
2 11437  80.0000 168.0000 0000000   0.0000 168.0000 12.41559219    16
CTC2_L_00440015-02
1 11438U 22305WZ  26037.47795139  .00000000  00000+0  00000-0 0  9991
2 11438  80.0000 168.0000 0000000   0.0000 258.0000 12.41559219    17
CTC2_L_00440015-03
1 11439U 23960LM  26037.47795139  .00000000  00000+0  00000-0 0  9990
2 11439  80.0000 168.0000 0000000   0.0000 348.0000 12.41559219    18
CTC2_L_00440015-04
1 11440U 23825GG  26037.47795139  .00000000  00000+0  00000-0 0  9992
2 11440  80.0000 168.0000 0000000   0.0000  78.0000 12.41559219    10
CTC2_L_00440016-01
1 11441U 22724FR  26037.47795139  .00000000  00000+0  00000-0 0  9990
2 11441  80.0000 180.0000 0000000   0.0000 180.0000 12.41559219    19
CTC2_L_00440016-02
1 11442U 25103JC  26037.47795139  .00000000  00000+0  00000-0 0  9995
2 11442  80.0000 180.0000 0000000   0.0000 270.0000 12.41559219    10
